[{"OBJECT_NAME":"OTTER PUP","OBJECT_ID":"2023-084B","EPOCH":"2026-03-09T22:13:17.127552","MEAN_MOTION":15.82540583,"ECCENTRICITY":0.00041382,"INCLINATION":97.5775,"RA_OF_ASC_NODE":224.8325,"ARG_OF_PERICENTER":244.5217,"MEAN_ANOMALY":115.5623,"EPHEMERIS_TYPE":0,"CLASSIFICATION_TYPE":"U","NORAD_CAT_ID":56933,"ELEMENT_SET_NO":999,"REV_AT_EPOCH":15353,"BSTAR":0.00091196086,"MEAN_MOTION_DOT":0.00193296,"MEAN_MOTION_DDOT":0},{"OBJECT_NAME":"FENGYUN 1C DEB","OBJECT_ID":"1999-025CUE","EPOCH":"2026-02-18T09:12:07.487136","MEAN_MOTION":15.64460458,"ECCENTRICITY":0.00384301,"INCLINATION":98.1181,"RA_OF_ASC_NODE":202.4936,"ARG_OF_PERICENTER":104.8925,"MEAN_ANOMALY":255.6593,"EPHEMERIS_TYPE":0,"CLASSIFICATION_TYPE":"U","NORAD_CAT_ID":32184,"ELEMENT_SET_NO":999,"REV_AT_EPOCH":99453,"BSTAR":0.002023567,"MEAN_MOTION_DOT":0.00206139,"MEAN_MOTION_DDOT":0}]
